NORAD_CAT_ID,OBJECT_NAME,OBJECT_TYPE,EPOCH,MEAN_MOTION,ECCENTRICITY,INCLINATION,RA_OF_ASC_NODE,ARG_OF_PERICENTER,MEAN_ANOMALY,BSTAR,MEAN_MOTION_DOT,MEAN_MOTION_DDOT,TLE_LINE0,TLE_LINE1,TLE_LINE2,SEMIMAJOR_AXIS,PERIOD,APOGEE,PERIGEE,DECAYED
53178.0,STARLINK-4280,PAYLOAD,2022-11-22 13:32:53,15.0884687,0.0002707,53.2167,165.1521,38.9777,321.141,6.4236e-05,7.34e-06,0.0,0 STARLINK-4280,1 53178U 22083AY  22326.56451272  .00000734  00000-0  64236-4 0  9995,2 53178  53.2167 165.1521 0002707  38.9777 321.1410 15.08846870 19715,6917.859,95.437,541.597,537.852,0.0
53178.0,STARLINK-4280,PAYLOAD,2022-11-22 19:54:26,15.08840442,0.000275,53.2168,163.9632,37.6518,322.4666,0.00014069,1.951e-05,0.0,0 STARLINK-4280,1 53178U 22083AY  22326.82947458  .00001951  00000-0  14069-3 0  9990,2 53178  53.2168 163.9632 0002750  37.6518 322.4666 15.08840442 19752,6917.879,95.438,541.646,537.842,0.0
53178.0,STARLINK-4280,PAYLOAD,2022-11-22 23:05:13,15.08834774,0.0002807,53.2168,163.3691,36.9151,323.2034,9.833e-05,1.277e-05,0.0,0 STARLINK-4280,1 53178U 22083AY  22326.96195973  .00001277  00000-0  98330-4 0  9997,2 53178  53.2168 163.3691 0002807  36.9151 323.2034 15.08834774 20402,6917.896,95.438,541.703,537.82,0.0
53178.0,STARLINK-4280,PAYLOAD,2022-11-23 16:34:28,15.08832819,0.0002872,53.2164,160.0982,38.2215,321.8981,2.479800000000001e-07,-2.85e-06,0.0,0 STARLINK-4280,1 53178U 22083AY  22327.69060689 -.00000285  00000-0  24798-6 0  9991,2 53178  53.2164 160.0982 0002872  38.2215 321.8981 15.08832819 20518,6917.901999999999,95.438,541.754,537.781,0.0
53178.0,STARLINK-4280,PAYLOAD,2022-11-23 19:45:14,15.08833233,0.0002795,53.2166,159.5028,40.0165,320.1033,2.1558e-06,-2.54e-06,0.0,0 STARLINK-4280,1 53178U 22083AY  22327.82308629 -.00000254  00000-0  21558-5 0  9991,2 53178  53.2166 159.5028 0002795  40.0165 320.1033 15.08833233 19905,6917.901,95.438,541.7,537.8330000000002,0.0
53178.0,STARLINK-4280,PAYLOAD,2022-11-24 11:39:05,15.088368300000004,0.0002816,53.2165,156.5289,40.9168,319.2035,1.8519e-05,6e-08,0.0,0 STARLINK-4280,1 53178U 22083AY  22328.48548587  .00000006  00000-0  18519-4 0  9999,2 53178  53.2165 156.5289 0002816  40.9168 319.2035 15.08836830 20006,6917.89,95.438,541.703,537.807,0.0
53178.0,STARLINK-4280,PAYLOAD,2022-11-24 19:36:01,15.08837098,0.00029,53.2167,155.0423,50.1438,309.9809,2.8441e-05,1.64e-06,0.0,0 STARLINK-4280,1 53178U 22083AY  22328.81668630  .00000164  00000-0  28441-4 0  9998,2 53178  53.2167 155.0423 0002900  50.1438 309.9809 15.08837098 20685,6917.889,95.438,541.76,537.748,0.0
53178.0,STARLINK-4280,PAYLOAD,2022-11-25 13:05:16,15.08836682,0.0002845,53.2168,151.77100000000004,42.2318,317.8893,0.0001005,1.311e-05,0.0,0 STARLINK-4280,1 53178U 22083AY  22329.54532764  .00001311  00000-0  10050-3 0  9998,2 53178  53.2168 151.7710 0002845  42.2318 317.8893 15.08836682 20167,6917.891,95.438,541.724,537.7869999999998,0.0
53178.0,STARLINK-4280,PAYLOAD,2022-11-25 19:26:48,15.08839349,0.0002862,53.2168,150.5816,42.9623,317.1592,0.00011771,1.585e-05,0.0,0 STARLINK-4280,1 53178U 22083AY  22329.81028627  .00001585  00000-0  11771-3 0  9990,2 53178  53.2168 150.5816 0002862  42.9623 317.1592 15.08839349 20203,6917.882,95.438,541.727,537.7669999999998,0.0
53178.0,STARLINK-4280,PAYLOAD,2022-11-26 04:59:07,15.0884226,0.0002901999999999,53.2169,148.7975,43.9321,316.1901,0.00012638,1.724e-05,0.0,0 STARLINK-4280,1 53178U 22083AY  22330.20772455  .00001724  00000-0  12638-3 0  9998,2 53178  53.2169 148.7975 0002902  43.9321 316.1901 15.08842260 20894,6917.873000000001,95.437,541.746,537.731,0.0
53178.0,STARLINK-4280,PAYLOAD,2022-11-26 12:56:02,15.08844469,0.0002891,53.2167,147.3104,44.4959,315.6265,0.00011514,1.545e-05,0.0,0 STARLINK-4280,1 53178U 22083AY  22330.53892338  .00001545  00000-0  11514-3 0  9990,2 53178  53.2167 147.3104 0002891  44.4959 315.6265 15.08844469 20318,6917.8669999999975,95.437,541.732,537.732,0.0
53178.0,STARLINK-4280,PAYLOAD,2022-11-26 17:42:12,15.08846824,0.0002905,53.2169,146.4185,45.2067,314.9161,0.00012972,1.777e-05,0.0,0 STARLINK-4280,1 53178U 22083AY  22330.73764101  .00001777  00000-0  12972-3 0  9994,2 53178  53.2169 146.4185 0002905  45.2067 314.9161 15.08846824 20341,6917.86,95.437,541.734,537.715,0.0
53178.0,STARLINK-4280,PAYLOAD,2022-11-27 12:46:49,15.08843361,0.0002934,53.2169,142.8495,47.3302,312.7937,6.8777e-05,8.06e-06,0.0,0 STARLINK-4280,1 53178U 22083AY  22331.53252163  .00000806  00000-0  68777-4 0  9990,2 53178  53.2169 142.8495 0002934  47.3302 312.7937 15.08843361 20465,6917.87,95.437,541.765,537.705,0.0
53178.0,STARLINK-4280,PAYLOAD,2022-11-27 20:43:45,15.08839169,0.0002947,53.2167,141.3626,47.0998,313.0241,6.1793e-06,-1.9e-06,0.0,0 STARLINK-4280,1 53178U 22083AY  22331.86372617 -.00000190  00000-0  61793-5 0  9992,2 53178  53.2167 141.3626 0002947  47.0998 313.0241 15.08839169 20514,6917.8830000000025,95.438,541.7869999999998,537.7090000000002,0.0
53178.0,STARLINK-4280,PAYLOAD,2022-11-28 17:23:46,15.08844637,0.0002918,53.2168,137.4972,47.9153,312.2087,3.2546e-05,2.29e-06,0.0,0 STARLINK-4280,1 53178U 22083AY  22332.72483995  .00000229  00000-0  32546-4 0  9995,2 53178  53.2168 137.4972 0002918  47.9153 312.2087 15.08844637 21274,6917.866,95.437,541.75,537.7130000000002,0.0
53178.0,STARLINK-4280,PAYLOAD,2022-11-29 10:53:00,15.08848046,0.0002941,53.2172,134.2263,48.2851,311.8392,5.2662e-05,5.5e-06,0.0,0 STARLINK-4280,1 53178U 22083AY  22333.45347430  .00000550  00000-0  52662-4 0  9997,2 53178  53.2172 134.2263 0002941  48.2851 311.8392 15.08848046 20756,6917.856,95.437,541.755,537.686,0.0
53178.0,STARLINK-4280,PAYLOAD,2022-11-29 20:25:19,15.0884263,0.0002957,53.2176,132.44299999999998,45.5243,314.5991,0.00012055,1.631e-05,0.0,0 STARLINK-4280,1 53178U 22083AY  22333.85091533  .00001631  00000-0  12055-3 0  9993,2 53178  53.2176 132.4430 0002957  45.5243 314.5991 15.08842630 20813,6917.871999999999,95.437,541.783,537.692,0.0
53178.0,STARLINK-4280,PAYLOAD,2022-11-30 04:22:15,15.08838544,0.000302,53.217,130.9556,48.4373,311.6878,5.6479e-05,6.1e-06,0.0,0 STARLINK-4280,1 53178U 22083AY  22334.18211981  .00000610  00000-0  56479-4 0  9996,2 53178  53.2170 130.9556 0003020  48.4373 311.6878 15.08838544 21493,6917.885,95.438,541.839,537.661,0.0
53178.0,STARLINK-4280,PAYLOAD,2022-11-30 10:43:47,15.08836429,0.000302,53.2167,129.7659,49.2437,310.8816,3.1217e-05,2.08e-06,0.0,0 STARLINK-4280,1 53178U 22083AY  22334.44708271  .00000208  00000-0  31217-4 0  9994,2 53178  53.2167 129.7659 0003020  49.2437 310.8816 15.08836429 20907,6917.891,95.438,541.846,537.6669999999998,0.0
53178.0,STARLINK-4280,PAYLOAD,2022-11-30 17:05:20,15.08841267,0.0003019,53.2166,128.5762,50.4974,309.6285,5.5847e-05,6e-06,0.0,0 STARLINK-4280,1 53178U 22083AY  22334.71203890  .00000600  00000-0  55847-4 0  9992,2 53178  53.2166 128.5762 0003019  50.4974 309.6285 15.08841267 20942,6917.877,95.437,541.83,537.653,0.0
53178.0,STARLINK-4280,PAYLOAD,2022-12-01 12:09:57,15.08844821,0.0002993,53.2173,125.0081,51.2112,308.9148,1.7815e-05,-5e-08,0.0,0 STARLINK-4280,1 53178U 22083AY  22335.50691716 -.00000005  00000-0  17815-4 0  9991,2 53178  53.2173 125.0081 0002993  51.2112 308.9148 15.08844821 21062,6917.866,95.437,541.8009999999998,537.66,0.0
53178.0,STARLINK-4280,PAYLOAD,2022-12-01 20:06:53,15.08836449,0.0003011,53.2173,123.522,50.2955,309.8302,-3.8811e-05,-9.06e-06,0.0,0 STARLINK-4280,1 53178U 22083AY  22335.83812415 -.00000906  00000-0 -38811-4 0  9998,2 53178  53.2173 123.5220 0003011  50.2955 309.8302 15.08836449 21740,6917.891,95.438,541.839,537.673,0.0
53178.0,STARLINK-4280,PAYLOAD,2022-12-02 08:49:59,15.08826339,0.0002998,53.2175,121.1431,50.4486,309.6771,5.5985e-06,-2e-06,0.0,0 STARLINK-4280,1 53178U 22083AY  22336.36805242 -.00000200  00000-0  55985-5 0  9995,2 53178  53.2175 121.1431 0002998  50.4486 309.6771 15.08826339 21828,6917.922,95.438,541.861,537.7130000000002,0.0
53178.0,STARLINK-4280,PAYLOAD,2022-12-02 12:00:46,15.08825724,0.0002983,53.2171,120.5478,49.7007,310.4245,-6.1908e-05,-1.273e-05,0.0,0 STARLINK-4280,1 53178U 22083AY  22336.50053576 -.00001273  00000-0 -61908-4 0  9999,2 53178  53.2171 120.5478 0002983  49.7007 310.4245 15.08825724 21218,6917.924,95.438,541.8530000000002,537.725,0.0
53178.0,STARLINK-4280,PAYLOAD,2022-12-02 18:22:19,15.08825506,0.000299,53.2175,119.3587,50.2893,309.8362,-6.571100000000001e-05,-1.334e-05,0.0,0 STARLINK-4280,1 53178U 22083AY  22336.76549783 -.00001334  00000-0 -65711-4 0  9991,2 53178  53.2175 119.3587 0002990  50.2893 309.8362 15.08825506 21251,6917.925,95.438,541.8580000000002,537.721,0.0
53178.0,STARLINK-4280,PAYLOAD,2022-12-03 10:16:10,15.08829816,0.0002924,53.2176,116.3852,51.0185,309.1067,6.5103e-05,7.47e-06,0.0,0 STARLINK-4280,1 53178U 22083AY  22337.42789506  .00000747  00000-0  65103-4 0  9994,2 53178  53.2176 116.3852 0002924  51.0185 309.1067 15.08829816 21987,6917.9119999999975,95.438,541.799,537.754,0.0
53178.0,STARLINK-4280,PAYLOAD,2022-12-03 13:26:56,15.08845689,0.0002888,53.2177,115.7905,49.8711,310.2534,-0.00011086,-2.053e-05,0.0,0 STARLINK-4280,1 53178U 22083AY  22337.56037216 -.00002053  00000-0 -11086-3 0  9997,2 53178  53.2177 115.7905 0002888  49.8711 310.2534 15.08845689 21370,6917.863,95.437,541.726,537.73,0.0
53178.0,STARLINK-4280,PAYLOAD,2022-12-03 16:37:42,15.08833166,0.0002898999999999,53.2178,115.1959,51.7232,308.4021,8.7507e-05,1.104e-05,0.0,0 STARLINK-4280,1 53178U 22083AY  22337.69285380  .00001104  00000-0  87507-4 0  9994,2 53178  53.2178 115.1959 0002899  51.7232 308.4021 15.08833166 21395,6917.901,95.438,541.7719999999998,537.761,0.0
53178.0,STARLINK-4280,PAYLOAD,2022-12-04 02:10:01,15.08838054,0.0002931,53.2178,113.4117,51.2407,308.8847,0.00010026,1.307e-05,0.0,0 STARLINK-4280,1 53178U 22083AY  22338.09029201  .00001307  00000-0  10026-3 0  9993,2 53178  53.2178 113.4117 0002931  51.2407 308.8847 15.08838054 22086,6917.886,95.438,541.779,537.724,0.0
